%YAML 1.1
%TAG !u! tag:unity3d.com,2011:
--- !u!114 &11400000
MonoBehaviour:
  m_ObjectHideFlags: 0
  m_CorrespondingSourceObject: {fileID: 0}
  m_PrefabInstance: {fileID: 0}
  m_PrefabAsset: {fileID: 0}
  m_GameObject: {fileID: 0}
  m_Enabled: 1
  m_EditorHideFlags: 0
  m_Script: {fileID: 11500000, guid: 3c3c350472192c149822725a54cc75ed, type: 3}
  m_Name: Sun
  m_EditorClassIdentifier: 
  mass: 1.989e+30
  diameter: 1.3927e+9
  orbit:
    semimajorAxis: 0
    eccentricity: 0
    inclination: 0
    lonAscNode: 0
    argPeriapsis: 0
    trueAnomaly: 0
    meanAnomaly: 0
    anomaly: 0
    semiminorAxis: 0
    meanMotion: 0
    semiLatusRectum: 0
    timeToPeriapsis: 0
    period: 0
  material: {fileID: 2100000, guid: eb925d5924befb94f8fda6dc5201d2ad, type: 2}
  bodiesOnOrbit:
  - {fileID: 11400000, guid: 21a0bfd2110c79d45ba9ab0b34aa36f8, type: 2}
  - {fileID: 11400000, guid: a4f50b667466eed4088e802f055373d4, type: 2}
  - {fileID: 11400000, guid: b09db4c067a3d3e49a4fee8f8cabdfa7, type: 2}
  - {fileID: 11400000, guid: 883395e8f59dd7948958e427211b26d1, type: 2}
  - {fileID: 11400000, guid: 1610d9495de612a489216d8af5c95fa8, type: 2}
  - {fileID: 11400000, guid: 65d75cb9238a2634ca65386c761f5a5b, type: 2}
  - {fileID: 11400000, guid: 40de4d11aa54cc64a8681599a497d33f, type: 2}
  - {fileID: 11400000, guid: 6dc01470e387ae04f962b41f222d0e19, type: 2}
  type: 0
